OBJECT_NAME,OBJECT_ID,EPOCH,MEAN_MOTION,ECCENTRICITY,INCLINATION,RA_OF_ASC_NODE,ARG_OF_PERICENTER,MEAN_ANOMALY,EPHEMERIS_TYPE,CLASSIFICATION_TYPE,NORAD_CAT_ID,ELEMENT_SET_NO,REV_AT_EPOCH,BSTAR,MEAN_MOTION_DOT,MEAN_MOTION_DDOT
ONEWEB-0529,2022-138AJ,2026-06-27T01:17:41.337024,13.19724773,.0001816,87.9178,303.0088,106.3797,253.7535,0,U,54145,999,17812,-.10238E-3,-.28E-6,0
ONEWEB-0531,2022-138AK,2026-06-27T00:08:08.627424,13.20772176,.0002886,87.9197,272.4787,95.9700,264.1763,0,U,54146,999,18060,.21685E-3,.101E-5,0
ONEWEB-0535,2022-138AL,2026-06-27T02:05:26.458656,13.19725210,.0002122,87.9187,302.9869,92.8289,267.3086,0,U,54147,999,17814,-.26065E-3,-.91E-6,0
ONEWEB-0536,2022-138AM,2026-06-27T05:16:00.854976,13.20771955,.0003051,87.9183,272.4575,97.8200,262.3279,0,U,54148,999,18062,.89067E-4,.49E-6,0
ONEWEB-0527,2022-166A,2026-06-27T04:02:44.393568,13.21824113,.0002045,87.9247,242.0113,99.8685,260.2680,0,U,54642,999,17285,-.11106E-3,-.33E-6,0
ONEWEB-0528,2022-166B,2026-06-27T04:03:56.401056,13.21825006,.0001995,87.9248,242.0136,104.5745,255.5610,0,U,54643,999,17286,.93484E-4,.52E-6,0
ONEWEB-0539,2022-166C,2026-06-27T04:58:26.184000,13.21827695,.0001889,87.9257,241.9783,93.0230,267.1120,0,U,54644,999,17286,.12598E-3,.65E-6,0
ONEWEB-0540,2022-166D,2026-06-27T05:08:18.976992,13.21828079,.0002019,87.9247,242.0065,94.8491,265.2873,0,U,54645,999,17285,.21668E-3,.103E-5,0
ONEWEB-0542,2022-166E,2026-06-27T05:12:58.755744,13.21824779,.0001895,87.9256,241.9751,90.9337,269.2014,0,U,54646,999,17286,.11176E-3,.59E-6,0
ONEWEB-0545,2022-166F,2026-06-27T04:22:06.133152,13.21828981,.0001895,87.9248,241.9931,82.6794,277.4555,0,U,54647,999,17282,-.16636E-5,.12E-6,0
ONEWEB-0580,2022-166G,2026-06-27T03:45:44.195328,13.21827893,.0002089,87.9246,241.9979,86.5630,273.5743,0,U,54648,999,17286,.18279E-3,.89E-6,0
ONEWEB-0582,2022-166H,2026-06-27T04:46:19.730208,13.21827301,.0001954,87.9248,241.9821,85.2433,274.8924,0,U,54649,999,17284,.18821E-4,.21E-6,0
ONEWEB-0583,2022-166J,2026-06-27T05:03:17.509248,13.21825067,.0002031,87.9243,242.0028,94.7806,265.3560,0,U,54650,999,17285,.18131E-3,.88E-6,0
ONEWEB-0584,2022-166K,2026-06-27T05:32:19.754016,13.21860958,.0002087,87.9241,241.9843,93.9538,266.1835,0,U,54651,999,17284,-.93245E-2,-.3838E-4,0
ONEWEB-0585,2022-166L,2026-06-27T04:17:15.870624,13.21827682,.0002084,87.9249,241.9822,102.5506,257.5861,0,U,54652,999,17284,-.39786E-4,-.3E-7,0
ONEWEB-0586,2022-166M,2026-06-27T04:36:38.920032,13.21825298,.0001944,87.9247,242.0048,94.0228,266.1128,0,U,54653,999,17284,.17674E-3,.86E-6,0
ONEWEB-0587,2022-166N,2026-06-27T04:51:11.001888,13.21825172,.0002237,87.9260,241.9774,106.3300,253.8080,0,U,54654,999,17300,.16733E-3,.82E-6,0
ONEWEB-0589,2022-166P,2026-06-27T04:31:48.258336,13.21825625,.0002062,87.9245,241.9910,73.4106,286.7254,0,U,54655,999,17286,.17673E-3,.86E-6,0
ONEWEB-0590,2022-166Q,2026-06-27T05:07:55.268832,13.21827866,.0002497,87.9254,241.9772,94.0556,266.0863,0,U,54656,999,17285,.26269E-4,.24E-6,0
ONEWEB-0591,2022-166R,2026-06-27T05:25:05.688192,13.21826742,.0002112,87.9247,241.9886,96.5736,263.5639,0,U,54657,999,17288,.95397E-4,.52E-6,0
ONEWEB-0592,2022-166S,2026-06-27T05:29:54.367008,13.21828290,.0002061,87.9255,241.9669,97.7170,262.4198,0,U,54658,999,17276,-.13E-3,-.41E-6,0
ONEWEB-0593,2022-166T,2026-06-27T04:12:25.045632,13.21825109,.0001908,87.9247,241.9886,96.4060,263.7291,0,U,54659,999,17286,.14046E-3,.71E-6,0
ONEWEB-0594,2022-166U,2026-06-27T04:41:28.398912,13.21828333,.0002003,87.9246,242.0008,102.6118,257.5240,0,U,54660,999,17288,.20108E-3,.96E-6,0
ONEWEB-0595,2022-166V,2026-06-27T04:07:34.353696,13.21825195,.0002219,87.9256,241.9870,102.9770,257.1612,0,U,54661,999,17285,.13421E-3,.68E-6,0
ONEWEB-0596,2022-166W,2026-06-27T05:20:14.381088,13.21826378,.0002139,87.9248,241.9878,99.7981,260.3394,0,U,54662,999,17286,-.54946E-4,-.1E-6,0
ONEWEB-0597,2022-166X,2026-06-27T04:53:35.642400,13.21827834,.0001998,87.9247,241.9943,94.6927,265.4435,0,U,54663,999,17286,.15851E-3,.78E-6,0
ONEWEB-0600,2022-166Y,2026-06-27T04:26:57.579360,13.21824980,.0001819,87.9247,241.9894,98.4425,261.6915,0,U,54664,999,17283,-.95096E-4,-.26E-6,0
ONEWEB-0601,2022-166Z,2026-06-27T04:14:48.937920,13.21822465,.0001991,87.9246,242.0073,90.8541,269.2821,0,U,54665,999,17302,.15601E-2,.657E-5,0
ONEWEB-0602,2022-166AA,2026-06-27T05:14:10.663008,13.21827437,.0001783,87.9245,242.0049,98.9513,261.1822,0,U,54666,999,17287,.67145E-4,.41E-6,0
ONEWEB-0603,2022-166AB,2026-06-27T05:22:39.990144,13.21827076,.0001976,87.9255,241.9617,95.9284,264.2075,0,U,54667,999,17280,.22315E-3,.105E-5,0
ONEWEB-0604,2022-166AC,2026-06-27T05:05:40.695648,13.21828337,.0002072,87.9256,241.9798,100.3083,259.8284,0,U,54668,999,17276,.16483E-4,.2E-6,0
